IRIDIUM 116             
1 43072U 17083C   24254.48410850 -.00000003  00000+0 -81820-5 0  9990
2 43072  86.3954 231.3951 0002129  89.7078 270.4362 14.34218180351768
IRIDIUM 130             
1 43073U 17083D   24253.89425052  .00000014  00000+0 -21758-5 0  9990
2 43073  86.3960 231.8541 0002045  89.8268 270.3162 14.34216925351622
IRIDIUM 151             
1 43074U 17083E   24254.21772166  .00000125  00000+0  37663-4 0  9992
2 43074  86.3953 231.5494 0002443  87.2600 272.8876 14.34218243351694
IRIDIUM 137             
1 43076U 17083G   24253.98939081  .00000626  00000+0  21640-3 0  9991
2 43076  86.3956 231.7237 0002715  94.3742 265.7764 14.34217531351690
IRIDIUM 141             
1 43077U 17083H   24254.19235207  .00000703  00000+0  24379-3 0  9993
2 43077  86.3951 231.5062 0002257  83.3756 276.7697 14.34219623351729
IRIDIUM 131             
1 43079U 17083K   24253.90059257  .00000703  00000+0  24392-3 0  9997
2 43079  86.3955 231.7710 0002488  88.6934 271.4547 14.34218921351613
